STARLINK-31519          
1 59546U 24074N   26068.13468203 -.00010659  00000+0 -37859-3 0  9992
2 59546  43.0041 346.3010 0001515 297.9835  62.0863 15.27560711105933
FLOCK 4G-4              
1 62659U 25009BC  26068.75333732  .00011866  00000+0  45294-3 0  9997
2 62659  97.3994 150.7963 0001598 343.4316  16.6870 15.26803327121323
